NORAD_CAT_ID,OBJECT_NAME,OBJECT_TYPE,EPOCH,MEAN_MOTION,ECCENTRICITY,INCLINATION,RA_OF_ASC_NODE,ARG_OF_PERICENTER,MEAN_ANOMALY,BSTAR,MEAN_MOTION_DOT,MEAN_MOTION_DDOT,TLE_LINE0,TLE_LINE1,TLE_LINE2,SEMIMAJOR_AXIS,PERIOD,APOGEE,PERIGEE,DECAYED
53017.0,STARLINK-4281,PAYLOAD,2022-08-26 22:00:00,15.73228868,0.0002006999999999,53.2157,130.3096,26.5127,125.6879,-0.00023425,-0.00033409,0.0,0 STARLINK-4281,1 53017U 22076AH  22238.91667824 -.00033409  00000-0 -23425-3 0  9993,2 53017  53.2157 130.3096 0002007  26.5127 125.6879 15.73228868  1307,6727.813,91.532,351.028,348.32800000000015,0.0
53017.0,STARLINK-4281,PAYLOAD,2022-08-27 14:00:01,15.73175106,0.0001833,53.2148,127.0092,33.3479,296.7672,0.00062083,0.00087328,0.0,0 STARLINK-4281,1 53017U 22076AH  22239.58334491  .00087328  00000-0  62083-3 0  9998,2 53017  53.2148 127.0092 0001833  33.3479 296.7672 15.73175106  1305,6727.965999999999,91.535,351.064,348.598,0.0
53017.0,STARLINK-4281,PAYLOAD,2022-08-27 20:00:01,15.73262033,0.0001853,53.2152,125.7731,31.005,275.7965,-0.00043074,-0.00060801,0.0,0 STARLINK-4281,1 53017U 22076AH  22239.83334491 -.00060801  00000-0 -43074-3 0  9994,2 53017  53.2152 125.7731 0001853  31.0050 275.7965 15.73262033  8571,6727.718000000003,91.53,350.83,348.337,0.0
53017.0,STARLINK-4281,PAYLOAD,2022-08-27 22:00:00,15.73268127,0.0001945,53.2151,125.3613,28.9947,30.0504,-0.00067158,-0.00094107,0.0,0 STARLINK-4281,1 53017U 22076AH  22239.91667824 -.00094107  00000-0 -67158-3 0  9997,2 53017  53.2151 125.3613 0001945  28.9947  30.0504 15.73268127  1302,6727.701,91.529,350.874,348.25699999999995,0.0
53017.0,STARLINK-4281,PAYLOAD,2022-08-28 12:00:00,15.73217392,0.0001798,53.2152,122.4732,27.5785,97.1256,0.00011113,0.00015015,0.0,0 STARLINK-4281,1 53017U 22076AH  22240.50001157  .00015015  00000-0  11113-3 0  9994,2 53017  53.2152 122.4732 0001798  27.5785  97.1256 15.73217392  8677,6727.846,91.532,350.92,348.501,0.0
53017.0,STARLINK-4281,PAYLOAD,2022-08-28 14:00:01,15.73229566,0.0001801,53.2151,122.0604,29.8041,207.1364,-9.1628e-05,-0.00013477,0.0,0 STARLINK-4281,1 53017U 22076AH  22240.58334491 -.00013477  00000-0 -91628-4 0  9994,2 53017  53.2151 122.0604 0001801  29.8041 207.1364 15.73229566  1307,6727.811,91.531,350.88800000000015,348.464,0.0
53017.0,STARLINK-4281,PAYLOAD,2022-08-28 20:00:01,15.73192336,0.0002015,53.2151,120.8244,32.1669,181.4794,-7.1377e-05,-0.00010623,0.0,0 STARLINK-4281,1 53017U 22076AH  22240.83334491 -.00010623  00000-0 -71377-4 0  9991,2 53017  53.2151 120.8244 0002015  32.1669 181.4794 15.73192336  8733,6727.917,91.534,351.13800000000015,348.426,0.0
53017.0,STARLINK-4281,PAYLOAD,2022-08-28 22:00:00,15.73182608,0.0002089999999999,53.2149,120.4125,32.5185,293.3591,7.2941e-05,9.62e-05,0.0,0 STARLINK-4281,1 53017U 22076AH  22240.91667824  .00009620  00000-0  72941-4 0  9990,2 53017  53.2149 120.4125 0002090  32.5185 293.3591 15.73182608  1309,6727.945,91.534,351.216,348.404,0.0
53017.0,STARLINK-4281,PAYLOAD,2022-08-29 14:00:01,15.73141837,0.0001716,53.2143,117.1117,30.4067,113.3089,0.00053306,0.00074673,0.0,0 STARLINK-4281,1 53017U 22076AH  22241.58334491  .00074673  00000-0  53306-3 0  9998,2 53017  53.2143 117.1117 0001716  30.4067 113.3089 15.73141837  1309,6728.061,91.537,351.081,348.771,0.0
53017.0,STARLINK-4281,PAYLOAD,2022-08-29 22:00:00,15.73182697,0.0001947,53.2144,115.4641,27.9514,204.6458,7.9721e-05,0.00010574,0.0,0 STARLINK-4281,1 53017U 22076AH  22241.91667824  .00010574  00000-0  79721-4 0  9994,2 53017  53.2144 115.4641 0001947  27.9514 204.6458 15.73182697  1300,6727.945,91.534,351.119,348.5,0.0
53017.0,STARLINK-4281,PAYLOAD,2022-08-30 04:00:00,15.73195709,0.000197,53.2143,114.2271,24.0327,185.2577,0.00038225,0.0005336,0.0,0 STARLINK-4281,1 53017U 22076AH  22242.16667824  .00053360  00000-0  38225-3 0  9995,2 53017  53.2143 114.2271 0001970  24.0327 185.2577 15.73195709  8931,6727.906999999997,91.533,351.098,348.44699999999995,0.0
53017.0,STARLINK-4281,PAYLOAD,2022-08-30 14:00:01,15.73220658,0.0001710999999999,53.2147,112.1626,26.4212,24.0637,-9.4838e-05,-0.00013921,0.0,0 STARLINK-4281,1 53017U 22076AH  22242.58334491 -.00013921  00000-0 -94838-4 0  9996,2 53017  53.2147 112.1626 0001711  26.4212  24.0637 15.73220658  9006,6727.8359999999975,91.532,350.852,348.55,0.0
53017.0,STARLINK-4281,PAYLOAD,2022-08-30 22:00:00,15.73236803,0.0001993,53.2144,110.5149,24.8703,114.5579,-0.00055834,-0.00078384,0.0,0 STARLINK-4281,1 53017U 22076AH  22242.91667824 -.00078384  00000-0 -55834-3 0  9998,2 53017  53.2144 110.5149 0001993  24.8703 114.5579 15.73236803  1308,6727.79,91.531,350.996,348.314,0.0
53017.0,STARLINK-4281,PAYLOAD,2022-08-31 14:00:01,15.73208005,0.0001843,53.2143,107.2138,35.5323,281.7465,-0.00019709,-0.0002819999999999,0.0,0 STARLINK-4281,1 53017U 22076AH  22243.58334491 -.00028200  00000-0 -19709-3 0  9996,2 53017  53.2143 107.2138 0001843  35.5323 281.7465 15.73208005  1303,6727.871999999999,91.533,350.977,348.497,0.0
53017.0,STARLINK-4281,PAYLOAD,2022-08-31 20:00:01,15.73170092,0.0002068,53.2143,105.9782,36.0106,257.9615,-7.713e-05,-0.00011418,0.0,0 STARLINK-4281,1 53017U 22076AH  22243.83334491 -.00011418  00000-0 -77130-4 0  9990,2 53017  53.2143 105.9782 0002068  36.0106 257.9615 15.73170092  9201,6727.98,91.535,351.237,348.454,0.0
53017.0,STARLINK-4281,PAYLOAD,2022-08-31 22:00:00,15.73156356,0.0002131999999999,53.2144,105.5663,35.7083,10.4896,0.00013951,0.00018967,0.0,0 STARLINK-4281,1 53017U 22076AH  22243.91667824  .00018967  00000-0  13951-3 0  9992,2 53017  53.2144 105.5663 0002132  35.7083  10.4896 15.73156356  1301,6728.02,91.536,351.319,348.45,0.0
53017.0,STARLINK-4281,PAYLOAD,2022-09-01 12:00:00,15.73178021,0.0001973,53.2147,102.6775,37.8456,73.9337,0.00056781,0.00079756,0.0,0 STARLINK-4281,1 53017U 22076AH  22244.50001157  .00079756  00000-0  56781-3 0  9990,2 53017  53.2147 102.6775 0001973  37.8456  73.9337 15.73178021  9300,6727.958000000001,91.534,351.15,348.495,0.0
53017.0,STARLINK-4281,PAYLOAD,2022-09-01 14:00:01,15.73198821,0.0001972,53.2149,102.2649,38.9389,185.1322,0.00044652,0.00062513,0.0,0 STARLINK-4281,1 53017U 22076AH  22244.58335648  .00062513  00000-0  44652-3 0  9990,2 53017  53.2149 102.2649 0001972  38.9389 185.1322 15.73198821  1306,6727.899,91.533,351.09,348.43699999999984,0.0
53017.0,STARLINK-4281,PAYLOAD,2022-09-01 22:00:00,15.73257665,0.0002169,53.2148,100.6175,33.9164,279.0399,-0.00046211,-0.00065142,0.0,0 STARLINK-4281,1 53017U 22076AH  22244.91667824 -.00065142  00000-0 -46211-3 0  9997,2 53017  53.2148 100.6175 0002169  33.9164 279.0399 15.73257665  1305,6727.731,91.53,351.055,348.13699999999994,0.0
53017.0,STARLINK-4281,PAYLOAD,2022-09-02 06:00:00,15.73214117,0.0002029,53.2144,98.967,31.6097,10.3223,1.8052e-05,1.914e-05,0.0,0 STARLINK-4281,1 53017U 22076AH  22245.25001157  .00001914  00000-0  18052-4 0  9994,2 53017  53.2144  98.9670 0002029  31.6097  10.3223 15.73214117  9423,6727.855,91.532,351.085,348.355,0.0
53017.0,STARLINK-4281,PAYLOAD,2022-09-02 14:00:01,15.73216984,0.0001921,53.2149,97.3163,38.7091,92.1624,-0.00028864,-0.00040965,0.0,0 STARLINK-4281,1 53017U 22076AH  22245.58334491 -.00040965  00000-0 -28864-3 0  9992,2 53017  53.2149  97.3163 0001921  38.7091  92.1624 15.73216984  1306,6727.847,91.532,351.004,348.4190000000001,0.0
53017.0,STARLINK-4281,PAYLOAD,2022-09-02 20:00:01,15.73183134,0.0002147,53.2148,96.0809,37.1529,70.423,2.4755e-05,2.852e-05,0.0,0 STARLINK-4281,1 53017U 22076AH  22245.83334491  .00002852  00000-0  24755-4 0  9997,2 53017  53.2148  96.0809 0002147  37.1529  70.4230 15.73183134  9511,6727.943,91.534,351.25300000000016,348.36400000000015,0.0
53017.0,STARLINK-4281,PAYLOAD,2022-09-02 22:00:01,15.73172779,0.0002214,53.215,95.6689,36.2289,183.6419,0.00024022,0.00033189,0.0,0 STARLINK-4281,1 53017U 22076AH  22245.91668981  .00033189  00000-0  24022-3 0  9993,2 53017  53.2150  95.6689 0002214  36.2289 183.6419 15.73172779  1301,6727.973000000001,91.535,351.327,348.348,0.0
53017.0,STARLINK-4281,PAYLOAD,2022-09-03 04:00:00,15.73225574,0.0002121,53.215,94.4314,33.654,162.836,-9.0854e-05,-0.00013367,0.0,0 STARLINK-4281,1 53017U 22076AH  22246.16667824 -.00013367  00000-0 -90854-4 0  9991,2 53017  53.2150  94.4314 0002121  33.6540 162.8360 15.73225574  9563,6727.821999999999,91.532,351.11400000000015,348.26,0.0
53017.0,STARLINK-4281,PAYLOAD,2022-09-03 14:00:01,15.7320287,0.0001888,53.2157,92.3677,34.0976,3.5972,0.00028892,0.00040128,0.0,0 STARLINK-4281,1 53017U 22076AH  22246.58334491  .00040128  00000-0  28892-3 0  9993,2 53017  53.2157  92.3677 0001888  34.0976   3.5972 15.73202870  1304,6727.887,91.533,351.022,348.482,0.0
53017.0,STARLINK-4281,PAYLOAD,2022-09-03 20:00:01,15.73222528,0.0002091,53.2155,91.1322,30.3231,344.08,0.00019737,0.00027196,0.0,0 STARLINK-4281,1 53017U 22076AH  22246.83334491  .00027196  00000-0  19737-3 0  9999,2 53017  53.2155  91.1322 0002091  30.3231 344.0800 15.73222528  9679,6727.831,91.532,351.103,348.289,0.0
53017.0,STARLINK-4281,PAYLOAD,2022-09-03 22:00:00,15.73215489,0.0002131999999999,53.2155,90.7202,29.206,97.439,0.0004224,0.00059121,0.0,0 STARLINK-4281,1 53017U 22076AH  22246.91667824  .00059121  00000-0  42240-3 0  9995,2 53017  53.2155  90.7202 0002132  29.2060  97.4390 15.73215489  1307,6727.851,91.532,351.15,348.282,0.0
53017.0,STARLINK-4281,PAYLOAD,2022-09-04 12:00:00,15.73398818,0.0001548,53.2155,87.8211,36.7448,155.5977,-0.0033150999999999,-0.00445868,0.0,0 STARLINK-4281,1 53017U 22076AH  22247.50001157 -.00445868  00000-0 -33151-2 0  9991,2 53017  53.2155  87.8211 0001548  36.7448 155.5977 15.73398818  9771,6727.328,91.522,350.235,348.152,0.0
53017.0,STARLINK-4281,PAYLOAD,2022-09-04 14:00:01,15.73520602,0.0001492,53.2159,87.4062,26.2856,278.3464,-0.006676,-0.00858936,0.0,0 STARLINK-4281,1 53017U 22076AH  22247.58335648 -.00858936  00000-0 -66760-2 0  9990,2 53017  53.2159  87.4062 0001492  26.2856 278.3464 15.73520602  1304,6726.981,91.515,349.85,347.843,0.0
